QIANFAN-81              
1 63167U 25046J   26194.27365384  .00000098  00000+0  13362-3 0  9994
2 63167  88.9723 297.8251 0013870 219.3642 140.6502 13.51023686 76187
QIANFAN-82              
1 63168U 25046K   26194.30659759  .00000097  00000+0  13132-3 0  9995
2 63168  88.9724 297.8657 0011498 225.2536 134.7680 13.51018158 76179
QIANFAN-83              
1 63169U 25046L   26194.30505580  .00000125  00000+0  14610-3 0  9992
2 63169  88.9725 297.2236 0013824 198.1761 161.8904 13.62050508 76538
QIANFAN-84              
1 63170U 25046M   26194.26160134  .00000020  00000+0  13000-4 0  9998
2 63170  88.9724 298.0031 0014644 223.4474 136.5524 13.51043675 76098
QIANFAN-85              
1 63171U 25046N   26194.25720556  .00000096  00000+0  13078-3 0  9995
2 63171  88.9723 297.8736 0012040 224.4614 135.5571 13.51015908 76169
QIANFAN-86              
1 63172U 25046P   26194.26547283  .00000071  00000+0  91399-4 0  9997
2 63172  88.9725 297.7399 0009747 227.2216 132.8116 13.51023300 76244
QIANFAN-87              
1 63173U 25046Q   26194.31078200  .00000109  00000+0  14993-3 0  9998
2 63173  88.9722 297.8390 0010467 222.2112 137.8234 13.51008926 76181
QIANFAN-88              
1 63174U 25046R   26194.25318571  .00000102  00000+0  13942-3 0  9996
2 63174  88.9724 297.8047 0010596 232.1515 127.8678 13.51016608 76203
QIANFAN-89              
1 63175U 25046S   26194.29011937  .00000093  00000+0  12489-3 0  9991
2 63175  88.9724 297.9898 0015487 224.2044 135.7871 13.51023747 76106
QIANFAN-90              
1 63176U 25046T   26194.31890719  .00000115  00000+0  16014-3 0  9991
2 63176  88.9724 297.9598 0012483 220.8541 139.1675 13.51016024 76123
