{"fetched_at":"2026-07-13T18:16:35.050Z","source":"https://celestrak.org/NORAD/elements/gp.php?GROUP=qianfan&FORMAT=JSON","constellation":"qianfan","records":[{"OBJECT_NAME":"QIANFAN-81","OBJECT_ID":"2025-046J","EPOCH":"2026-07-13T06:34:03.691776","CLASSIFICATION_TYPE":"U","MEAN_MOTION":13.51023686,"ECCENTRICITY":0.00138704,"INCLINATION":88.9723,"RA_OF_ASC_NODE":297.8251,"ARG_OF_PERICENTER":219.3642,"MEAN_ANOMALY":140.6502,"EPHEMERIS_TYPE":0,"NORAD_CAT_ID":63167,"ELEMENT_SET_NO":999,"REV_AT_EPOCH":7618,"BSTAR":0.00013362134,"MEAN_MOTION_DOT":9.8e-7,"MEAN_MOTION_DDOT":0},{"OBJECT_NAME":"QIANFAN-82","OBJECT_ID":"2025-046K","EPOCH":"2026-07-13T07:21:30.031776","CLASSIFICATION_TYPE":"U","MEAN_MOTION":13.51018158,"ECCENTRICITY":0.00114988,"INCLINATION":88.9724,"RA_OF_ASC_NODE":297.8657,"ARG_OF_PERICENTER":225.2536,"MEAN_ANOMALY":134.768,"EPHEMERIS_TYPE":0,"NORAD_CAT_ID":63168,"ELEMENT_SET_NO":999,"REV_AT_EPOCH":7617,"BSTAR":0.00013132144,"MEAN_MOTION_DOT":9.7e-7,"MEAN_MOTION_DDOT":0},{"OBJECT_NAME":"QIANFAN-83","OBJECT_ID":"2025-046L","EPOCH":"2026-07-13T07:19:16.821120","CLASSIFICATION_TYPE":"U","MEAN_MOTION":13.62050508,"ECCENTRICITY":0.00138246,"INCLINATION":88.9725,"RA_OF_ASC_NODE":297.2236,"ARG_OF_PERICENTER":198.1761,"MEAN_ANOMALY":161.8904,"EPHEMERIS_TYPE":0,"NORAD_CAT_ID":63169,"ELEMENT_SET_NO":999,"REV_AT_EPOCH":7653,"BSTAR":0.00014610308,"MEAN_MOTION_DOT":0.00000125,"MEAN_MOTION_DDOT":0},{"OBJECT_NAME":"QIANFAN-84","OBJECT_ID":"2025-046M","EPOCH":"2026-07-13T06:16:42.355776","CLASSIFICATION_TYPE":"U","MEAN_MOTION":13.51043675,"ECCENTRICITY":0.00146444,"INCLINATION":88.9724,"RA_OF_ASC_NODE":298.0031,"ARG_OF_PERICENTER":223.4474,"MEAN_ANOMALY":136.5524,"EPHEMERIS_TYPE":0,"NORAD_CAT_ID":63170,"ELEMENT_SET_NO":999,"REV_AT_EPOCH":7609,"BSTAR":0.000012999835,"MEAN_MOTION_DOT":2e-7,"MEAN_MOTION_DDOT":0},{"OBJECT_NAME":"QIANFAN-85","OBJECT_ID":"2025-046N","EPOCH":"2026-07-13T06:10:22.560384","CLASSIFICATION_TYPE":"U","MEAN_MOTION":13.51015908,"ECCENTRICITY":0.00120403,"INCLINATION":88.9723,"RA_OF_ASC_NODE":297.8736,"ARG_OF_PERICENTER":224.4614,"MEAN_ANOMALY":135.5571,"EPHEMERIS_TYPE":0,"NORAD_CAT_ID":63171,"ELEMENT_SET_NO":999,"REV_AT_EPOCH":7616,"BSTAR":0.00013078246,"MEAN_MOTION_DOT":9.6e-7,"MEAN_MOTION_DDOT":0},{"OBJECT_NAME":"QIANFAN-86","OBJECT_ID":"2025-046P","EPOCH":"2026-07-13T06:22:16.852512","CLASSIFICATION_TYPE":"U","MEAN_MOTION":13.510233,"ECCENTRICITY":0.00097472,"INCLINATION":88.9725,"RA_OF_ASC_NODE":297.7399,"ARG_OF_PERICENTER":227.2216,"MEAN_ANOMALY":132.8116,"EPHEMERIS_TYPE":0,"NORAD_CAT_ID":63172,"ELEMENT_SET_NO":999,"REV_AT_EPOCH":7624,"BSTAR":0.000091398916,"MEAN_MOTION_DOT":7.1e-7,"MEAN_MOTION_DDOT":0},{"OBJECT_NAME":"QIANFAN-87","OBJECT_ID":"2025-046Q","EPOCH":"2026-07-13T07:27:31.564800","CLASSIFICATION_TYPE":"U","MEAN_MOTION":13.51008926,"ECCENTRICITY":0.00104671,"INCLINATION":88.9722,"RA_OF_ASC_NODE":297.839,"ARG_OF_PERICENTER":222.2112,"MEAN_ANOMALY":137.8234,"EPHEMERIS_TYPE":0,"NORAD_CAT_ID":63173,"ELEMENT_SET_NO":999,"REV_AT_EPOCH":7618,"BSTAR":0.00014993305,"MEAN_MOTION_DOT":0.00000109,"MEAN_MOTION_DDOT":0},{"OBJECT_NAME":"QIANFAN-88","OBJECT_ID":"2025-046R","EPOCH":"2026-07-13T06:04:35.245344","CLASSIFICATION_TYPE":"U","MEAN_MOTION":13.51016608,"ECCENTRICITY":0.00105966,"INCLINATION":88.9724,"RA_OF_ASC_NODE":297.8047,"ARG_OF_PERICENTER":232.1515,"MEAN_ANOMALY":127.8678,"EPHEMERIS_TYPE":0,"NORAD_CAT_ID":63174,"ELEMENT_SET_NO":999,"REV_AT_EPOCH":7620,"BSTAR":0.00013941618,"MEAN_MOTION_DOT":0.00000102,"MEAN_MOTION_DDOT":0},{"OBJECT_NAME":"QIANFAN-89","OBJECT_ID":"2025-046S","EPOCH":"2026-07-13T06:57:46.313568","CLASSIFICATION_TYPE":"U","MEAN_MOTION":13.51023747,"ECCENTRICITY":0.00154876,"INCLINATION":88.9724,"RA_OF_ASC_NODE":297.9898,"ARG_OF_PERICENTER":224.2044,"MEAN_ANOMALY":135.7871,"EPHEMERIS_TYPE":0,"NORAD_CAT_ID":63175,"ELEMENT_SET_NO":999,"REV_AT_EPOCH":7610,"BSTAR":0.00012488572,"MEAN_MOTION_DOT":9.3e-7,"MEAN_MOTION_DDOT":0},{"OBJECT_NAME":"QIANFAN-90","OBJECT_ID":"2025-046T","EPOCH":"2026-07-13T07:39:13.581216","CLASSIFICATION_TYPE":"U","MEAN_MOTION":13.51016024,"ECCENTRICITY":0.00124835,"INCLINATION":88.9724,"RA_OF_ASC_NODE":297.9598,"ARG_OF_PERICENTER":220.8541,"MEAN_ANOMALY":139.1675,"EPHEMERIS_TYPE":0,"NORAD_CAT_ID":63176,"ELEMENT_SET_NO":999,"REV_AT_EPOCH":7612,"BSTAR":0.00016014163,"MEAN_MOTION_DOT":0.00000115,"MEAN_MOTION_DDOT":0}]}
